[{"OBJECT_NAME":"RROCI-2","OBJECT_ID":"2024-043J","EPOCH":"2026-03-09T21:40:56.693280","MEAN_MOTION":14.99383357,"ECCENTRICITY":0.00054118,"INCLINATION":97.8279,"RA_OF_ASC_NODE":200.9973,"ARG_OF_PERICENTER":337.3784,"MEAN_ANOMALY":22.7199,"EPHEMERIS_TYPE":0,"CLASSIFICATION_TYPE":"U","NORAD_CAT_ID":59106,"ELEMENT_SET_NO":999,"REV_AT_EPOCH":10988,"BSTAR":0.00035067832,"MEAN_MOTION_DOT":4.232e-5,"MEAN_MOTION_DDOT":0},{"OBJECT_NAME":"STARLINK-36284","OBJECT_ID":"2025-304C","EPOCH":"2026-03-09T15:11:57.329088","MEAN_MOTION":14.9833156,"ECCENTRICITY":0.0003871,"INCLINATION":70.0027,"RA_OF_ASC_NODE":174.7092,"ARG_OF_PERICENTER":265.9749,"MEAN_ANOMALY":94.0967,"EPHEMERIS_TYPE":0,"CLASSIFICATION_TYPE":"U","NORAD_CAT_ID":67194,"ELEMENT_SET_NO":999,"REV_AT_EPOCH":1387,"BSTAR":0.0014763,"MEAN_MOTION_DOT":0.00017567,"MEAN_MOTION_DDOT":0}]
